     2.100          NAVIGATION                              RINEX VERSION / TYPE
fic2rin                                 12/19/2017 00:16:33 PGM / RUN BY / DATE
                                                            END OF HEADER
 3 17 12 18  1 59 44.0 -.253138132393D-04  .613908923697D-11  .000000000000D+00
     .130000000000D+02  .210625000000D+02  .478234206089D-08 -.292125547530D+01
     .113621354103D-05  .115607655607D-02  .554695725441D-05  .515358721352D+04
     .935840000000D+05  .372529029846D-08  .117689892062D+01  .204890966415D-07
     .960018796225D+00  .271843750000D+03  .597587572973D+00 -.807997942072D-08
     .392873507616D-09  .100000000000D+01  .198000000000D+04  .000000000000D+00
     .240000000000D+01  .000000000000D+00  .232830643654D-08  .130000000000D+02
     .864060000000D+05  .400000000000D+01
12 17 12 18  1 59 44.0  .359879806638D-03 -.181898940355D-11  .000000000000D+00
     .140000000000D+02  .733750000000D+02  .414767276722D-08 -.310920671798D+01
     .370666384697D-05  .668235938065D-02  .153668224812D-05  .515367498970D+04
     .935840000000D+05 -.260770320892D-07 -.190438235310D+01 -.175088644028D-06
     .987724758884D+00  .361031250000D+03  .908740887220D+00 -.806497879588D-08
     .190007914592D-09  .100000000000D+01  .198000000000D+04  .000000000000D+00
     .240000000000D+01  .000000000000D+00 -.125728547573D-07  .140000000000D+02
     .864060000000D+05  .400000000000D+01
 1 17 12 18  2  0  0.0 -.175568275154D-04 -.261479726760D-11  .000000000000D+00
     .200000000000D+02 -.485937500000D+02  .391230582038D-08 -.185746812538D+01
    -.252015888691D-05  .716795481276D-02  .113639980555D-04  .515368086433D+04
     .936000000000D+05 -.111758708954D-07  .134428588290D+00 -.141561031342D-06
     .969920124221D+00  .165531250000D+03  .625532373100D+00 -.749281210570D-08
     .353943314588D-09  .100000000000D+01  .198000000000D+04  .000000000000D+00
     .240000000000D+01  .000000000000D+00  .558793544769D-08  .200000000000D+02
     .864060000000D+05  .400000000000D+01
 2 17 12 18  2  0  0.0  .252560246736D-03 -.100044417195D-10  .000000000000D+00
     .110000000000D+02 -.587500000000D+02  .449018703431D-08 -.143830576117D+01
    -.289641320705D-05  .174746129196D-01  .111628323793D-04  .515364563942D+04
     .936000000000D+05  .365078449249D-06  .767307174224D-01  .366941094398D-06
     .948942888377D+00  .156375000000D+03 -.192680369682D+01 -.780496796539D-08
     .226438003480D-09  .100000000000D+01  .198000000000D+04  .000000000000D+00
     .240000000000D+01  .000000000000D+00 -.204890966415D-07  .110000000000D+02
     .864060000000D+05  .400000000000D+01
 4 17 12 18  2  0  0.0  .274060294032D-04  .193267624127D-11  .000000000000D+00
     .600000000000D+01  .748437500000D+02  .567130766130D-08  .155643228527D+01
     .385195016861D-05  .926276273094D-02  .189803540707D-05  .515366028786D+04
     .936000000000D+05 -.240281224251D-06 -.193798154519D+01  .726431608200D-07
     .980316878201D+00  .354156250000D+03  .894380633195D+00 -.827855912093D-08
     .186436337250D-09  .100000000000D+01  .198000000000D+04  .000000000000D+00
     .240000000000D+01  .630000000000D+02 -.195577740669D-07  .600000000000D+01
     .864060000000D+05  .400000000000D+01
 5 17 12 18  2  0  0.0 -.194823369384D-04  .113686837722D-11  .000000000000D+00
     .250000000000D+02  .191562500000D+02  .510806991447D-08  .109032145960D+01
     .113993883133D-05  .528524583206D-02  .587850809097D-05  .515360026550D+04
     .936000000000D+05 -.596046447754D-07  .115726557399D+01  .186264514923D-07
     .946949899487D+00  .259906250000D+03  .633842416344D+00 -.825570102594D-08
     .350371737246D-09  .100000000000D+01  .198000000000D+04  .000000000000D+00
     .240000000000D+01  .000000000000D+00 -.107102096081D-07  .250000000000D+02
     .864060000000D+05  .400000000000D+01
 6 17 12 18  2  0  0.0  .413428060710D-03  .909494701773D-12  .000000000000D+00
     .620000000000D+02 -.595312500000D+02  .403731102735D-08 -.157473372545D+01
    -.307522714138D-05  .760644441471D-03  .116266310215D-04  .515380850029D+04
     .936000000000D+05  .167638063431D-07  .126096775363D+00  .447034835815D-07
     .969665049824D+00  .161031250000D+03 -.130491880128D+01 -.765424740156D-08
     .312870175156D-09  .100000000000D+01  .198000000000D+04  .000000000000D+00
     .240000000000D+01  .000000000000D+00  .465661287308D-08  .620000000000D+02
     .864060000000D+05  .400000000000D+01
 7 17 12 18  2  0  0.0  .264446716756D-03 -.534328137292D-11  .000000000000D+00
     .320000000000D+02  .106656250000D+03  .420517516242D-08 -.252243947229D+01
     .528991222382D-05  .110811337363D-01  .104680657387D-04  .515371427536D+04
     .936000000000D+05  .614672899246D-07 -.299329316469D+01 -.189989805222D-06
     .960638817480D+00  .179093750000D+03 -.254516257651D+01 -.765567603249D-08
     .382158775590D-10  .100000000000D+01  .198000000000D+04  .000000000000D+00
     .240000000000D+01  .000000000000D+00 -.111758708954D-07  .320000000000D+02
     .864060000000D+05  .400000000000D+01
 8 17 12 18  2  0  0.0 -.844914466143D-04 -.136424205266D-11  .000000000000D+00
     .930000000000D+02 -.117031250000D+03  .438089676765D-08  .826917968475D+00
    -.624544918537D-05  .303238502238D-02  .397861003876D-05  .515373648262D+04
     .936000000000D+05  .149011611938D-07 -.929248994493D+00 -.260770320892D-07
     .968275387368D+00  .304156250000D+03 -.620042733509D+00 -.816284001505D-08
    -.379301513716D-09  .100000000000D+01  .198000000000D+04  .000000000000D+00
     .340000000000D+01  .000000000000D+00  .558793544769D-08  .930000000000D+02
     .864060000000D+05  .400000000000D+01
 9 17 12 18  2  0  0.0  .484254676849D-03  .397903932026D-11  .000000000000D+00
     .830000000000D+02 -.177187500000D+02  .480805741775D-08  .604187185564D+00
    -.101514160633D-05  .111181195825D-02  .751391053200D-05  .515371241570D+04
     .936000000000D+05  .558793544769D-08  .221211116338D+01  .223517417908D-07
     .952791983839D+00  .228062500000D+03  .172455480130D+01 -.806105006081D-08
    -.481805783431D-09  .100000000000D+01  .198000000000D+04  .000000000000D+00
     .240000000000D+01  .000000000000D+00  .931322574615D-09  .830000000000D+02
     .864060000000D+05  .400000000000D+01
10 17 12 18  2  0  0.0  .131274573505D-03  .659383658785D-11  .000000000000D+00
     .460000000000D+02  .231250000000D+02  .479377110838D-08  .244537934521D+01
     .126287341118D-05  .306493032258D-02  .577978789806D-05  .515366159821D+04
     .936000000000D+05 -.117346644402D-06  .117333369417D+01 -.745058059692D-08
     .960146130077D+00  .266750000000D+03 -.288743049643D+01 -.807390773924D-08
     .438589697593D-09  .100000000000D+01  .198000000000D+04  .000000000000D+00
     .240000000000D+01  .000000000000D+00  .186264514923D-08  .460000000000D+02
     .864060000000D+05  .400000000000D+01
11 17 12 18  2  0  0.0 -.730998348445D-03 -.136424205266D-11  .000000000000D+00
     .720000000000D+02 -.102625000000D+03  .530557814148D-08 -.252182427720D+01
    -.519677996635D-05  .168215509038D-01  .961311161518D-05  .515375286674D+04
     .936000000000D+05  .189989805222D-06 -.281589382722D+00  .106170773506D-06
     .903779628769D+00  .159406250000D+03  .172705583238D+01 -.805069248651D-08
    -.571452374714D-11  .100000000000D+01  .198000000000D+04  .000000000000D+00
     .240000000000D+01  .000000000000D+00 -.121071934700D-07  .720000000000D+02
     .864060000000D+05  .400000000000D+01
13 17 12 18  2  0  0.0 -.948323868215D-04 -.227373675443D-12  .000000000000D+00
     .130000000000D+02 -.156562500000D+02  .442911306177D-08 -.115363420902D+01
    -.780448317528D-06  .367315020412D-02  .842846930027D-05  .515365613174D+04
     .936000000000D+05 -.279396772385D-07  .234138965683D+01  .931322574615D-08
     .968795134366D+00  .222343750000D+03  .165258392485D+01 -.785961309872D-08
    -.546094175586D-09  .100000000000D+01  .198000000000D+04  .000000000000D+00
     .240000000000D+01  .000000000000D+00 -.116415321827D-07  .130000000000D+02
     .864060000000D+05  .400000000000D+01
14 17 12 18  2  0  0.0 -.907755456865D-04 -.682121026330D-12  .000000000000D+00
     .180000000000D+02 -.226562500000D+02  .467305179422D-08  .130038466224D-01
    -.122562050819D-05  .924581103027D-02  .820495188236D-05  .515371919823D+04
     .936000000000D+05 -.130385160446D-06  .230057204511D+01  .102445483208D-06
     .961288891461D+00  .224375000000D+03 -.195271970899D+01 -.812212403335D-08
    -.503235247482D-09  .100000000000D+01  .198000000000D+04  .000000000000D+00
     .240000000000D+01  .000000000000D+00 -.977888703346D-08  .180000000000D+02
     .864060000000D+05  .400000000000D+01
15 17 12 18  2  0  0.0 -.357407145202D-03  .000000000000D+00  .000000000000D+00
     .100000000000D+03 -.260000000000D+02  .554630245433D-08 -.511906667150D+00
    -.119768083096D-05  .100655006245D-01  .653974711895D-05  .515365382195D+04
     .936000000000D+05  .987201929092D-07  .214541119831D+01  .109896063805D-06
     .928304484842D+00  .234312500000D+03  .649136347112D+00 -.856642825469D-08
    -.452161691492D-09  .100000000000D+01  .198000000000D+04  .000000000000D+00
     .240000000000D+01  .000000000000D+00 -.107102096081D-07  .100000000000D+03
     .864060000000D+05  .400000000000D+01
16 17 12 18  2  0  0.0  .353129580617D-04 -.454747350886D-12  .000000000000D+00
     .102000000000D+03  .609062500000D+02  .419231748399D-08  .123187217532D+01
     .341795384884D-05  .957437721081D-02  .173598527908D-05  .515355519104D+04
     .936000000000D+05  .204890966415D-07 -.188548289542D+01  .147148966789D-06
     .988164577890D+00  .359781250000D+03  .450252846358D+00 -.823927177017D-08
     .289297764699D-10  .100000000000D+01  .198000000000D+04  .000000000000D+00
     .240000000000D+01  .000000000000D+00 -.107102096081D-07  .102000000000D+03
     .864060000000D+05  .400000000000D+01
